0 BREEZE-M DEB
1 38961U 12044CU  13282.21705186  .00043082  28163-5  11983-2 0  2353
2 38961 050.1294 350.4587 2413025 091.1127 296.4368 10.59887724 37065
0 BREEZE-M DEB
1 38961U 12044CU  13283.63153621  .00041511  28072-5  11575-2 0  2363
2 38961 050.1294 347.0953 2412366 093.8762 293.8512 10.60002307 37212
0 BREEZE-M DEB
1 38961U 12044CU  13283.63154771  .00078844  00000-0  21677-2 0  2370
2 38961 050.1317 347.0938 2411638 093.8892 293.8878 10.60006828 37213
0 BREEZE-M DEB
1 38961U 12044CU  13285.51727308  .00036464  27769-5  10226-2 0  2388
2 38961 050.1301 342.6104 2411570 097.5635 290.3057 10.60134938 37410
0 BREEZE-M DEB
1 38961U 12044CU  13286.74286359  .00035672  27707-5  10016-2 0  2390
2 38961 050.1296 339.6935 2411146 099.9628 287.9385 10.60213593 37543
0 BREEZE-M DEB
1 38961U 12044CU  13288.15687060  .00046918  28366-5  13083-2 0  2407
2 38961 050.1290 336.3296 2410617 102.7247 285.1515 10.60324299 37690
0 BREEZE-M DEB
1 38961U 12044CU  13289.47644218  .00044647  28174-5  12449-2 0  2411
2 38961 050.1280 333.1903 2410120 105.3012 282.4909 10.60439494 37834
0 BREEZE-M DEB
1 38961U 12044CU  13290.13617361  .00043513  28075-5  12133-2 0  2427
2 38961 050.1277 331.6198 2409927 106.5915 281.1366 10.60485885 37903
0 BREEZE-M DEB
1 38961U 12044CU  13291.17282203  .00041031  27876-5  11443-2 0  2430
2 38961 050.1276 329.1511 2409585 108.6201 278.9762 10.60570037 38015
0 BREEZE-M DEB
1 38961U 12044CU  13292.49206359  .00041171  27821-5  11460-2 0  2449
2 38961 050.1274 326.0100 2409207 111.2006 276.1735 10.60669434 38152
0 BREEZE-M DEB
1 38961U 12044CU  13294.09381150  .00042145  27789-5  11703-2 0  2456
2 38961 050.1272 322.1949 2408755 114.3378 272.6816 10.60783958 38329
0 BREEZE-M DEB
1 38961U 12044CU  13294.65908547  .00046868  28067-5  12978-2 0  2465
2 38961 050.1269 320.8488 2408541 115.4436 271.4277 10.60832944 38382
0 BREEZE-M DEB
1 38961U 12044CU  13295.50694657  .00045654  27928-5  12645-2 0  2473
2 38961 050.1268 318.8293 2408245 117.1038 269.5234 10.60896702 38473
